[{"OBJECT_NAME":"ONEWEB-0647","OBJECT_ID":"2023-043AK","EPOCH":"2025-10-05T02:31:03.260640","MEAN_MOTION":13.15546466,"ECCENTRICITY":0.0001705,"INCLINATION":87.8997,"RA_OF_ASC_NODE":310.1426,"ARG_OF_PERICENTER":95.0657,"MEAN_ANOMALY":265.0668,"EPHEMERIS_TYPE":0,"CLASSIFICATION_TYPE":"U","NORAD_CAT_ID":56079,"ELEMENT_SET_NO":999,"REV_AT_EPOCH":12288,"BSTAR":-0.00018421,"MEAN_MOTION_DOT":-5.7e-7,"MEAN_MOTION_DDOT":0},{"OBJECT_NAME":"ONEWEB-0651","OBJECT_ID":"2023-043AL","EPOCH":"2025-10-05T02:24:14.008032","MEAN_MOTION":13.15549824,"ECCENTRICITY":0.0001864,"INCLINATION":87.8998,"RA_OF_ASC_NODE":310.1354,"ARG_OF_PERICENTER":86.3455,"MEAN_ANOMALY":273.7889,"EPHEMERIS_TYPE":0,"CLASSIFICATION_TYPE":"U","NORAD_CAT_ID":56080,"ELEMENT_SET_NO":999,"REV_AT_EPOCH":12408,"BSTAR":0.00022183,"MEAN_MOTION_DOT":9.6e-7,"MEAN_MOTION_DDOT":0},{"OBJECT_NAME":"ONEWEB-0718","OBJECT_ID":"2023-043AM","EPOCH":"2025-10-05T02:17:22.751808","MEAN_MOTION":13.15546662,"ECCENTRICITY":0.0002436,"INCLINATION":87.8996,"RA_OF_ASC_NODE":310.1171,"ARG_OF_PERICENTER":99.7483,"MEAN_ANOMALY":260.3923,"EPHEMERIS_TYPE":0,"CLASSIFICATION_TYPE":"U","NORAD_CAT_ID":56081,"ELEMENT_SET_NO":999,"REV_AT_EPOCH":12289,"BSTAR":0.00030992,"MEAN_MOTION_DOT":1.3e-6,"MEAN_MOTION_DDOT":0},{"OBJECT_NAME":"ONEWEB-0561","OBJECT_ID":"2023-068A","EPOCH":"2025-10-05T04:48:36.307008","MEAN_MOTION":13.20771811,"ECCENTRICITY":0.0001432,"INCLINATION":87.9238,"RA_OF_ASC_NODE":325.303,"ARG_OF_PERICENTER":89.7847,"MEAN_ANOMALY":270.3451,"EPHEMERIS_TYPE":0,"CLASSIFICATION_TYPE":"U","NORAD_CAT_ID":56710,"ELEMENT_SET_NO":999,"REV_AT_EPOCH":11584,"BSTAR":-0.00022671,"MEAN_MOTION_DOT":-7.9e-7,"MEAN_MOTION_DDOT":0},{"OBJECT_NAME":"ONEWEB-0668","OBJECT_ID":"2023-068B","EPOCH":"2025-10-05T00:44:26.118240","MEAN_MOTION":13.16595229,"ECCENTRICITY":0.0002415,"INCLINATION":87.8982,"RA_OF_ASC_NODE":279.6025,"ARG_OF_PERICENTER":89.1109,"MEAN_ANOMALY":271.0299,"EPHEMERIS_TYPE":0,"CLASSIFICATION_TYPE":"U","NORAD_CAT_ID":56711,"ELEMENT_SET_NO":999,"REV_AT_EPOCH":11820,"BSTAR":0.00012705,"MEAN_MOTION_DOT":6.1e-7,"MEAN_MOTION_DDOT":0},{"OBJECT_NAME":"ONEWEB-0676","OBJECT_ID":"2023-068C","EPOCH":"2025-10-05T03:54:47.113920","MEAN_MOTION":13.16589349,"ECCENTRICITY":0.0001738,"INCLINATION":87.8972,"RA_OF_ASC_NODE":279.5932,"ARG_OF_PERICENTER":86.9947,"MEAN_ANOMALY":273.1382,"EPHEMERIS_TYPE":0,"CLASSIFICATION_TYPE":"U","NORAD_CAT_ID":56712,"ELEMENT_SET_NO":999,"REV_AT_EPOCH":11814,"BSTAR":0.00020505,"MEAN_MOTION_DOT":9.1e-7,"MEAN_MOTION_DDOT":0},{"OBJECT_NAME":"ONEWEB-0677","OBJECT_ID":"2023-068D","EPOCH":"2025-10-05T04:32:41.002080","MEAN_MOTION":13.20769283,"ECCENTRICITY":0.0001931,"INCLINATION":87.9239,"RA_OF_ASC_NODE":325.2826,"ARG_OF_PERICENTER":91.1639,"MEAN_ANOMALY":268.9716,"EPHEMERIS_TYPE":0,"CLASSIFICATION_TYPE":"U","NORAD_CAT_ID":56713,"ELEMENT_SET_NO":999,"REV_AT_EPOCH":11614,"BSTAR":-0.0002441,"MEAN_MOTION_DOT":-8.6e-7,"MEAN_MOTION_DDOT":0},{"OBJECT_NAME":"ONEWEB-0678","OBJECT_ID":"2023-068E","EPOCH":"2025-10-05T03:21:15.752160","MEAN_MOTION":13.15546806,"ECCENTRICITY":0.0001616,"INCLINATION":87.8992,"RA_OF_ASC_NODE":310.0817,"ARG_OF_PERICENTER":102.8683,"MEAN_ANOMALY":257.2628,"EPHEMERIS_TYPE":0,"CLASSIFICATION_TYPE":"U","NORAD_CAT_ID":56714,"ELEMENT_SET_NO":999,"REV_AT_EPOCH":11575,"BSTAR":0.000137,"MEAN_MOTION_DOT":6.4e-7,"MEAN_MOTION_DDOT":0},{"OBJECT_NAME":"ONEWEB-0679","OBJECT_ID":"2023-068F","EPOCH":"2025-10-05T04:00:03.998880","MEAN_MOTION":13.18203677,"ECCENTRICITY":0.0002151,"INCLINATION":87.8966,"RA_OF_ASC_NODE":279.5828,"ARG_OF_PERICENTER":78.1267,"MEAN_ANOMALY":107.6938,"EPHEMERIS_TYPE":0,"CLASSIFICATION_TYPE":"U","NORAD_CAT_ID":56715,"ELEMENT_SET_NO":999,"REV_AT_EPOCH":515,"BSTAR":-0.11348,"MEAN_MOTION_DOT":-0.00044195,"MEAN_MOTION_DDOT":0},{"OBJECT_NAME":"ONEWEB-0680","OBJECT_ID":"2023-068G","EPOCH":"2025-10-05T01:49:34.329792","MEAN_MOTION":13.21826645,"ECCENTRICITY":0.0002513,"INCLINATION":87.9175,"RA_OF_ASC_NODE":294.867,"ARG_OF_PERICENTER":87.4418,"MEAN_ANOMALY":272.7003,"EPHEMERIS_TYPE":0,"CLASSIFICATION_TYPE":"U","NORAD_CAT_ID":56716,"ELEMENT_SET_NO":999,"REV_AT_EPOCH":11739,"BSTAR":0.00023946,"MEAN_MOTION_DOT":1.12e-6,"MEAN_MOTION_DDOT":0},{"OBJECT_NAME":"ONEWEB-0681","OBJECT_ID":"2023-068H","EPOCH":"2025-10-05T01:17:47.600160","MEAN_MOTION":13.21826222,"ECCENTRICITY":0.0001546,"INCLINATION":87.9172,"RA_OF_ASC_NODE":294.8888,"ARG_OF_PERICENTER":56.7255,"MEAN_ANOMALY":303.4027,"EPHEMERIS_TYPE":0,"CLASSIFICATION_TYPE":"U","NORAD_CAT_ID":56717,"ELEMENT_SET_NO":999,"REV_AT_EPOCH":11738,"BSTAR":-1.4365e-5,"MEAN_MOTION_DOT":7.0e-8,"MEAN_MOTION_DDOT":0},{"OBJECT_NAME":"ONEWEB-0682","OBJECT_ID":"2023-068J","EPOCH":"2025-10-05T03:58:54.205824","MEAN_MOTION":13.15550035,"ECCENTRICITY":0.000235,"INCLINATION":87.8989,"RA_OF_ASC_NODE":310.095,"ARG_OF_PERICENTER":88.6153,"MEAN_ANOMALY":271.5247,"EPHEMERIS_TYPE":0,"CLASSIFICATION_TYPE":"U","NORAD_CAT_ID":56718,"ELEMENT_SET_NO":999,"REV_AT_EPOCH":11592,"BSTAR":0.00036084,"MEAN_MOTION_DOT":1.49e-6,"MEAN_MOTION_DDOT":0},{"OBJECT_NAME":"ONEWEB-0683","OBJECT_ID":"2023-068K","EPOCH":"2025-10-05T02:40:11.169696","MEAN_MOTION":13.15546269,"ECCENTRICITY":0.0002116,"INCLINATION":87.8994,"RA_OF_ASC_NODE":310.085,"ARG_OF_PERICENTER":91.6909,"MEAN_ANOMALY":268.4464,"EPHEMERIS_TYPE":0,"CLASSIFICATION_TYPE":"U","NORAD_CAT_ID":56719,"ELEMENT_SET_NO":999,"REV_AT_EPOCH":11588,"BSTAR":-0.0001957,"MEAN_MOTION_DOT":-6.1e-7,"MEAN_MOTION_DDOT":0},{"OBJECT_NAME":"ONEWEB-0684","OBJECT_ID":"2023-068L","EPOCH":"2025-10-05T02:51:35.886240","MEAN_MOTION":13.15546937,"ECCENTRICITY":0.0001985,"INCLINATION":87.8987,"RA_OF_ASC_NODE":310.0804,"ARG_OF_PERICENTER":138.7675,"MEAN_ANOMALY":221.3605,"EPHEMERIS_TYPE":0,"CLASSIFICATION_TYPE":"U","NORAD_CAT_ID":56720,"ELEMENT_SET_NO":999,"REV_AT_EPOCH":11571,"BSTAR":-0.00029794,"MEAN_MOTION_DOT":-9.9e-7,"MEAN_MOTION_DDOT":0},{"OBJECT_NAME":"ONEWEB-0686","OBJECT_ID":"2023-068M","EPOCH":"2025-10-05T01:06:04.178016","MEAN_MOTION":13.1659353,"ECCENTRICITY":0.0002165,"INCLINATION":87.8957,"RA_OF_ASC_NODE":279.6371,"ARG_OF_PERICENTER":95.3775,"MEAN_ANOMALY":264.7603,"EPHEMERIS_TYPE":0,"CLASSIFICATION_TYPE":"U","NORAD_CAT_ID":56721,"ELEMENT_SET_NO":999,"REV_AT_EPOCH":11814,"BSTAR":0.00016224,"MEAN_MOTION_DOT":7.5e-7,"MEAN_MOTION_DDOT":0},{"OBJECT_NAME":"ONEWEB-0694","OBJECT_ID":"2023-068N","EPOCH":"2025-10-05T02:07:38.324064","MEAN_MOTION":13.16593532,"ECCENTRICITY":0.0002293,"INCLINATION":87.8979,"RA_OF_ASC_NODE":279.5624,"ARG_OF_PERICENTER":86.2201,"MEAN_ANOMALY":273.9192,"EPHEMERIS_TYPE":0,"CLASSIFICATION_TYPE":"U","NORAD_CAT_ID":56722,"ELEMENT_SET_NO":999,"REV_AT_EPOCH":11820,"BSTAR":0.00026846,"MEAN_MOTION_DOT":1.15e-6,"MEAN_MOTION_DDOT":0},{"OBJECT_NAME":"ONEWEB-0696","OBJECT_ID":"2023-068P","EPOCH":"2025-10-05T01:50:00.021696","MEAN_MOTION":13.15547842,"ECCENTRICITY":0.0001646,"INCLINATION":87.8992,"RA_OF_ASC_NODE":310.1447,"ARG_OF_PERICENTER":101.7228,"MEAN_ANOMALY":258.4087,"EPHEMERIS_TYPE":0,"CLASSIFICATION_TYPE":"U","NORAD_CAT_ID":56723,"ELEMENT_SET_NO":999,"REV_AT_EPOCH":11582,"BSTAR":0.00043825,"MEAN_MOTION_DOT":1.78e-6,"MEAN_MOTION_DDOT":0}]
