ONEWEB-0647             
1 56079U 23043AK  25278.10489885 -.00000057  00000+0 -18421-3 0  9998
2 56079  87.8997 310.1426 0001705  95.0657 265.0668 13.15546466122884
ONEWEB-0651             
1 56080U 23043AL  25278.10016213  .00000096  00000+0  22183-3 0  9992
2 56080  87.8998 310.1354 0001864  86.3455 273.7889 13.15549824124088
ONEWEB-0718             
1 56081U 23043AM  25278.09540222  .00000130  00000+0  30992-3 0  9999
2 56081  87.8996 310.1171 0002436  99.7483 260.3923 13.15546662122894
ONEWEB-0561             
1 56710U 23068A   25278.20042022 -.00000079  00000+0 -22671-3 0  9992
2 56710  87.9238 325.3030 0001432  89.7847 270.3451 13.20771811115849
ONEWEB-0668             
1 56711U 23068B   25278.03085785  .00000061  00000+0  12705-3 0  9993
2 56711  87.8982 279.6025 0002415  89.1109 271.0299 13.16595229118200
ONEWEB-0676             
1 56712U 23068C   25278.16304530  .00000091  00000+0  20505-3 0  9990
2 56712  87.8972 279.5932 0001738  86.9947 273.1382 13.16589349118143
ONEWEB-0677             
1 56713U 23068D   25278.18936345 -.00000086  00000+0 -24410-3 0  9993
2 56713  87.9239 325.2826 0001931  91.1639 268.9716 13.20769283116146
ONEWEB-0678             
1 56714U 23068E   25278.13976565  .00000064  00000+0  13700-3 0  9991
2 56714  87.8992 310.0817 0001616 102.8683 257.2628 13.15546806115750
ONEWEB-0679             
1 56715U 23068F   25278.16671295 -.00044195  00000+0 -11348+0 0  9994
2 56715  87.8966 279.5828 0002151  78.1267 107.6938 13.18203677  5154
ONEWEB-0680             
1 56716U 23068G   25278.07609178  .00000112  00000+0  23946-3 0  9996
2 56716  87.9175 294.8670 0002513  87.4418 272.7003 13.21826645117393
ONEWEB-0681             
1 56717U 23068H   25278.05402315  .00000007  00000+0 -14365-4 0  9999
2 56717  87.9172 294.8888 0001546  56.7255 303.4027 13.21826222117383
ONEWEB-0682             
1 56718U 23068J   25278.16590516  .00000149  00000+0  36084-3 0  9990
2 56718  87.8989 310.0950 0002350  88.6153 271.5247 13.15550035115921
ONEWEB-0683             
1 56719U 23068K   25278.11124039 -.00000061  00000+0 -19570-3 0  9995
2 56719  87.8994 310.0850 0002116  91.6909 268.4464 13.15546269115885
ONEWEB-0684             
1 56720U 23068L   25278.11916535 -.00000099  00000+0 -29794-3 0  9997
2 56720  87.8987 310.0804 0001985 138.7675 221.3605 13.15546937115713
ONEWEB-0686             
1 56721U 23068M   25278.04588169  .00000075  00000+0  16224-3 0  9994
2 56721  87.8957 279.6371 0002165  95.3775 264.7603 13.16593530118141
ONEWEB-0694             
1 56722U 23068N   25278.08863801  .00000115  00000+0  26846-3 0  9994
2 56722  87.8979 279.5624 0002293  86.2201 273.9192 13.16593532118205
ONEWEB-0696             
1 56723U 23068P   25278.07638914  .00000178  00000+0  43825-3 0  9994
2 56723  87.8992 310.1447 0001646 101.7228 258.4087 13.15547842115827
